ONEWEB-0229             
1 48779U 21045N   25002.25764167 -.00000380  00000+0 -10435-2 0  9991
2 48779  87.9064   4.9033 0001598  86.5636 273.5678 13.15548374175739
ONEWEB-0228             
1 48780U 21045P   25002.44225503  .00000232  00000+0  58289-3 0  9994
2 48780  87.9061   4.8452 0001596  89.3211 270.8102 13.15550643174542
ONEWEB-0232             
1 48781U 21045Q   25002.26558167 -.00000097  00000+0 -29236-3 0  9991
2 48781  87.9055   4.8847 0001693  89.3896 270.7428 13.15549237174841
ONEWEB-0231             
1 48782U 21045R   25002.47156091 -.00000130  00000+0 -38000-3 0  9992
2 48782  87.9070   4.9041 0001477  91.0800 269.0499 13.15547588174566
ONEWEB-0234             
1 48783U 21045S   25002.26319012 -.00000453  00000+0 -12363-2 0  9995
2 48783  87.9060   4.8891 0002874 102.6919 257.4532 13.15547786174671
ONEWEB-0238             
1 48784U 21045T   25002.44542309  .00000385  00000+0  98804-3 0  9990
2 48784  87.9063   4.8695 0001897  91.2167 268.9181 13.15551599174594
ONEWEB-0240             
1 48785U 21045U   25002.22674077  .00000134  00000+0  32222-3 0  9999
2 48785  87.9063   4.8795 0001509 103.0664 257.0634 13.15551629174596
ONEWEB-0246             
1 48786U 21045V   25002.44936470  .00000218  00000+0  54428-3 0  9997
2 48786  87.9064   4.8427 0001556  86.2877 273.8431 13.15551385174499
